NORAD_CAT_ID,OBJECT_NAME,OBJECT_TYPE,EPOCH,MEAN_MOTION,ECCENTRICITY,INCLINATION,RA_OF_ASC_NODE,ARG_OF_PERICENTER,MEAN_ANOMALY,BSTAR,MEAN_MOTION_DOT,MEAN_MOTION_DDOT,TLE_LINE0,TLE_LINE1,TLE_LINE2,SEMIMAJOR_AXIS,PERIOD,APOGEE,PERIGEE,DECAYED
52278.0,STARLINK-3780,PAYLOAD,2023-02-06 11:03:03,15.0884743,0.0001317,53.2152,129.4612,96.7255,263.3887,5.6786e-05,6.16e-06,0.0,0 STARLINK-3780,1 52278U 22041T   23037.46046284  .00000616  00000-0  56786-4 0  9991,2 52278  53.2152 129.4612 0001317  96.7255 263.3887 15.08847430 45416,6917.858,95.437,540.634,538.812,0.0
52278.0,STARLINK-3780,PAYLOAD,2023-02-06 12:38:26,15.08851938,0.0001225,53.2159,129.1639,100.0527,260.0604,5.6525e-05,6.12e-06,0.0,0 STARLINK-3780,1 52278U 22041T   23037.52669969  .00000612  00000-0  56525-4 0  9996,2 52278  53.2159 129.1639 0001225 100.0527 260.0604 15.08851938 44203,6917.844,95.437,540.556,538.861,0.0
52278.0,STARLINK-3780,PAYLOAD,2023-02-06 15:49:12,15.08855161,0.0001168,53.215,128.5675,106.1782,253.9339,7.5125e-05,9.08e-06,0.0,0 STARLINK-3780,1 52278U 22041T   23037.65917569  .00000908  00000-0  75125-4 0  9997,2 52278  53.2150 128.5675 0001168 106.1782 253.9339 15.08855161 45448,6917.834,95.437,540.507,538.891,0.0
52278.0,STARLINK-3780,PAYLOAD,2023-02-07 10:53:50,15.08845828,0.0001291,53.2149,124.999,109.1237,250.9895,0.00011103,1.48e-05,0.0,0 STARLINK-3780,1 52278U 22041T   23038.45405895  .00001480  00000-0  11103-3 0  9991,2 52278  53.2149 124.9990 0001291 109.1237 250.9895 15.08845828 45567,6917.863,95.437,540.621,538.834,0.0
52278.0,STARLINK-3780,PAYLOAD,2023-02-07 22:01:32,15.08843429,0.0001214,53.2149,122.9194,101.8338,258.2791,5.3494e-05,5.64e-06,0.0,0 STARLINK-3780,1 52278U 22041T   23038.91774176  .00000564  00000-0  53494-4 0  9995,2 52278  53.2149 122.9194 0001214 101.8338 258.2791 15.08843429 44411,6917.87,95.437,540.575,538.895,0.0
52278.0,STARLINK-3780,PAYLOAD,2023-02-08 05:58:28,15.08836197,0.0001318,53.2164,121.4339,107.1284,252.9852,4.3383e-05,4.03e-06,0.0,0 STARLINK-3780,1 52278U 22041T   23039.24894642  .00000403  00000-0  43383-4 0  9991,2 52278  53.2164 121.4339 0001318 107.1284 252.9852 15.08836197 45680,6917.892,95.438,540.669,538.845,0.0
52278.0,STARLINK-3780,PAYLOAD,2023-02-08 10:44:38,15.08839287,0.0001346,53.2172,120.5428,109.8357,250.278,8.2958e-05,1.033e-05,0.0,0 STARLINK-3780,1 52278U 22041T   23039.44766353  .00001033  00000-0  82958-4 0  9991,2 52278  53.2172 120.5428 0001346 109.8357 250.2780 15.08839287 44491,6917.883,95.438,540.679,538.816,0.0
52278.0,STARLINK-3780,PAYLOAD,2023-02-08 21:52:19,15.08852891,9.63e-05,53.2149,118.4601,90.0588,270.0515,-3.2198e-05,-8e-06,0.0,0 STARLINK-3780,1 52278U 22041T   23039.91133539 -.00000800  00000-0 -32198-4 0  9991,2 52278  53.2149 118.4601 0000963  90.0588 270.0515 15.08852891 44565,6917.841,95.437,540.372,539.04,0.0
52278.0,STARLINK-3780,PAYLOAD,2023-02-09 10:35:25,15.08834638,0.0001398,53.217,116.0834,98.5073,261.6078,-3.5996e-05,-8.61e-06,0.0,0 STARLINK-3780,1 52278U 22041T   23040.44127138 -.00000861  00000-0 -35996-4 0  9995,2 52278  53.2170 116.0834 0001398  98.5073 261.6078 15.08834638 44644,6917.897,95.438,540.729,538.795,0.0
52278.0,STARLINK-3780,PAYLOAD,2023-02-09 21:43:08,15.08830593,0.0001533,53.2171,114.0015,106.9865,253.1295,2.159e-05,5.6e-07,0.0,0 STARLINK-3780,1 52278U 22041T   23040.90495528  .00000056  00000-0  21590-4 0  9996,2 52278  53.2171 114.0015 0001533 106.9865 253.1295 15.08830593 44719,6917.909,95.438,540.835,538.714,0.0
52278.0,STARLINK-3780,PAYLOAD,2023-02-10 04:04:40,15.08831339,0.0001579,53.2171,112.812,107.5654,252.551,2.0889e-05,4.4e-07,0.0,0 STARLINK-3780,1 52278U 22041T   23041.16991666  .00000044  00000-0  20889-4 0  9996,2 52278  53.2171 112.8120 0001579 107.5654 252.5510 15.08831339 44751,6917.907,95.438,540.864,538.68,0.0
52278.0,STARLINK-3780,PAYLOAD,2023-02-10 12:01:35,15.08843987,0.0001185,53.2152,111.3205,109.9528,250.1592,8.2819e-05,1.031e-05,0.0,0 STARLINK-3780,1 52278U 22041T   23041.50110794  .00001031  00000-0  82819-4 0  9997,2 52278  53.2152 111.3205 0001185 109.9528 250.1592 15.08843987 46025,6917.868,95.437,540.553,538.913,0.0
52278.0,STARLINK-3780,PAYLOAD,2023-02-10 21:33:54,15.08840667,0.0001135,53.2153,109.5366,89.0817,271.0305,4.6464e-05,4.52e-06,0.0,0 STARLINK-3780,1 52278U 22041T   23041.89855197  .00000452  00000-0  46464-4 0  9994,2 52278  53.2153 109.5366 0001135  89.0817 271.0305 15.08840667 44863,6917.878,95.438,540.529,538.958,0.0
52278.0,STARLINK-3780,PAYLOAD,2023-02-11 21:24:42,15.08838411,0.0001463,53.2164,105.0759,85.8788,274.2372,0.00014702,2.053e-05,0.0,0 STARLINK-3780,1 52278U 22041T   23042.89215578  .00002053  00000-0  14702-3 0  9996,2 52278  53.2164 105.0759 0001463  85.8788 274.2372 15.08838411 45018,6917.885,95.438,540.762,538.738,0.0
52278.0,STARLINK-3780,PAYLOAD,2023-02-12 03:46:15,15.08831958,0.0001426,53.2143,103.888,87.0993,273.0162,0.00017221,2.453e-05,0.0,0 STARLINK-3780,1 52278U 22041T   23043.15712036  .00002453  00000-0  17221-3 0  9990,2 52278  53.2143 103.8880 0001426  87.0993 273.0162 15.08831958 46279,6917.905,95.438,540.756,538.783,0.0
52278.0,STARLINK-3780,PAYLOAD,2023-02-12 13:18:32,15.08853379,0.0001309,53.216,102.1021,94.7442,265.37,0.00014784,2.067e-05,0.0,0 STARLINK-3780,1 52278U 22041T   23043.55454713  .00002067  00000-0  14784-3 0  9991,2 52278  53.2160 102.1021 0001309  94.7442 265.3700 15.08853379 45116,6917.839,95.437,540.61,538.799,0.0
52278.0,STARLINK-3780,PAYLOAD,2023-02-12 21:15:29,15.08847049,0.0001454,53.2163,100.6148,90.893,269.2229,5.5419e-05,5.94e-06,0.0,0 STARLINK-3780,1 52278U 22041T   23043.88575236  .00000594  00000-0  55419-4 0  9995,2 52278  53.2163 100.6148 0001454  90.8930 269.2229 15.08847049 46388,6917.859,95.437,540.73,538.718,0.0
52278.0,STARLINK-3780,PAYLOAD,2023-02-13 13:09:18,15.08866012,0.0001391,53.215,97.6428,95.2891,264.826,0.00010697,1.416e-05,0.0,0 STARLINK-3780,1 52278U 22041T   23044.54813529  .00001416  00000-0  10697-3 0  9991,2 52278  53.2150  97.6428 0001391  95.2891 264.8260 15.08866012 45268,6917.801,95.436,540.628,538.704,0.0
52278.0,STARLINK-3780,PAYLOAD,2023-02-13 14:44:41,15.0886966,0.0001428,53.215,97.3468,90.9277,269.1879,0.00017239,2.459e-05,0.0,0 STARLINK-3780,1 52278U 22041T   23044.61437107  .00002459  00000-0  17239-3 0  9990,2 52278  53.2150  97.3468 0001428  90.9277 269.1879 15.08869660 46492,6917.79,95.436,540.643,538.667,0.0
52278.0,STARLINK-3780,PAYLOAD,2023-02-14 03:27:49,15.08826792,0.0001522,53.2138,94.9653,96.6846,263.432,1.3902e-05,-6.7e-07,0.0,0 STARLINK-3780,1 52278U 22041T   23045.14432312 -.00000067  00000-0  13902-4 0  9990,2 52278  53.2138  94.9653 0001522  96.6846 263.4320 15.08826792 46573,6917.921,95.438,540.839,538.733,0.0
52278.0,STARLINK-3780,PAYLOAD,2023-02-14 13:00:07,15.08842279,0.0001484,53.2171,93.1824,95.2605,264.8556,5.4594e-05,5.81e-06,0.0,0 STARLINK-3780,1 52278U 22041T   23045.54175499  .00000581  00000-0  54594-4 0  9996,2 52278  53.2171  93.1824 0001484  95.2605 264.8556 15.08842279 45412,6917.873,95.437,540.765,538.712,0.0
52278.0,STARLINK-3780,PAYLOAD,2023-02-15 09:40:08,15.08839718,8.99e-05,53.2131,89.3145,93.364,266.7455,1.8281e-05,3e-08,0.0,0 STARLINK-3780,1 52278U 22041T   23046.40287313  .00000003  00000-0  18281-4 0  9993,2 52278  53.2131  89.3145 0000899  93.3640 266.7455 15.08839718 45545,6917.881,95.438,540.368,539.124,0.0
52278.0,STARLINK-3780,PAYLOAD,2023-02-15 19:12:27,15.08834083,0.0001317,53.215,87.5307,97.0751,263.0391,-0.00019162,-3.336e-05,0.0,0 STARLINK-3780,1 52278U 22041T   23046.80031439 -.00003336  00000-0 -19162-3 0  9995,2 52278  53.2150  87.5307 0001317  97.0751 263.0391 15.08834083 46827,6917.898,95.438,540.675,538.852,0.0
52278.0,STARLINK-3780,PAYLOAD,2023-02-16 06:20:08,15.08851545,0.0001423,53.2171,85.451,110.1752,249.9393,0.00031669,4.757e-05,0.0,0 STARLINK-3780,1 52278U 22041T   23047.26398831  .00004757  00000-0  31669-3 0  9990,2 52278  53.2171  85.4510 0001423 110.1752 249.9393 15.08851545 46893,6917.845,95.437,540.695,538.726,0.0
52278.0,STARLINK-3780,PAYLOAD,2023-02-16 12:41:40,15.0888001,0.0001173,53.2148,84.2592,106.0316,254.0805,0.00085233,0.00013318,0.0,0 STARLINK-3780,1 52278U 22041T   23047.52893891  .00013318  00000-0  85233-3 0  9994,2 52278  53.2148  84.2592 0001173 106.0316 254.0805 15.08880010 46935,6917.758,95.435,540.435,538.812,0.0
52278.0,STARLINK-3780,PAYLOAD,2023-02-16 19:03:13,15.08831004,0.0001068,53.2166,83.0721,102.8676,257.2435,-0.00079544,-0.00012922,0.0,0 STARLINK-3780,1 52278U 22041T   23047.79390778 -.00012922  00000-0 -79544-3 0  9999,2 52278  53.2166  83.0721 0001068 102.8676 257.2435 15.08831004 46979,6917.908,95.438,540.512,539.034,0.0
52278.0,STARLINK-3780,PAYLOAD,2023-02-17 04:35:33,15.08815686,0.000184,53.2147,81.2884,89.1826,270.9377,-0.00096263,-0.00015566,0.0,0 STARLINK-3780,1 52278U 22041T   23048.19135764 -.00015566  00000-0 -96263-3 0  9990,2 52278  53.2147  81.2884 0001840  89.1826 270.9377 15.08815686 47033,6917.955,95.439,541.093,538.547,0.0
52278.0,STARLINK-3780,PAYLOAD,2023-02-17 12:32:29,15.08819625,0.0001227,53.2151,79.8011,88.5525,271.5607,-0.00020915,-3.613e-05,0.0,0 STARLINK-3780,1 52278U 22041T   23048.52256361 -.00003613  00000-0 -20915-3 0  9995,2 52278  53.2151  79.8011 0001227  88.5525 271.5607 15.08819625 45860,6917.943,95.439,540.656,538.959,0.0
52278.0,STARLINK-3780,PAYLOAD,2023-02-17 18:54:02,15.0881669,0.0001111,53.2144,78.6097,87.8699,272.242,0.00067942,0.00010535,0.0,0 STARLINK-3780,1 52278U 22041T   23048.78753018  .00010535  00000-0  67942-3 0  9994,2 52278  53.2144  78.6097 0001111  87.8699 272.2420 15.08816690 47120,6917.952,95.439,540.585,539.048,0.0
52278.0,STARLINK-3780,PAYLOAD,2023-02-18 09:12:31,15.08841771,0.0001155,53.2139,75.9333,83.43,276.6824,0.0013307,0.00020955,0.0,0 STARLINK-3780,1 52278U 22041T   23049.38369472  .00020955  00000-0  13307-2 0  9990,2 52278  53.2139  75.9333 0001155  83.4300 276.6824 15.08841771 45993,6917.875,95.437,540.539,538.941,0.0
